*******************************************************************************
JPL/HORIZONS                  4 Vesta (A807 FA)            2022-May-10 14:12:55
Rec #:       4 (+COV) Soln.date: 2021-Apr-13_11:15:57   # obs: 9451 (1950-2021)
 
IAU76/J2000 helio. ecliptic osc. elements (au, days, deg., period=Julian yrs):
 
  EPOCH=  2458849.5 ! 2020-Jan-01.00 (TDB)         Residual RMS= .47385
   EC= .08857261385730482  QR= 2.15270823108896    TP= 2458247.8038331456
   OM= 103.8092892453337   W=  150.8357762126256   IN= 7.14181494423702
   A= 2.361908654291772    MA= 163.3754032354997   ADIST= 2.571109077494583
   PER= 3.62997            N= .271524746           ANGMOM= .026333145
   DAN= 2.53982            DDN= 2.17514            L= 254.8345779
   B= 3.4734313            MOID= 1.13987994        TP= 2018-May-09.3038331456
 
Asteroid physical parameters (km, seconds, rotational period in hours):
   GM= 17.28824            RAD= 262.7              ROTPER= 5.342128
   H= 3.4                  G= .320                 B-V= .782
                           ALBEDO= .4228           STYP= V
 
ASTEROID comments: 
1: soln ref.= JPL#36, OCC=0           radar(2977 delay, 0 Dop
2: source=ORB
*******************************************************************************


*******************************************************************************
Ephemeris / WWW_USER Tue May 10 14:12:55 2022 Pasadena, USA      / Horizons
*******************************************************************************
Target body name: 4 Vesta (A807 FA)               {source: JPL#36}
Center body name: Sun (10)                        {source: DE441}
Center-site name: BODY CENTER
*******************************************************************************
Start time      : A.D. 2020-Jan-01 00:00:00.0000 TDB
Stop  time      : A.D. 2040-Jan-01 00:00:00.0000 TDB
Step-size       : 14400 minutes
*******************************************************************************
Center geodetic : 0.00000000,0.00000000,0.0000000 {E-lon(deg),Lat(deg),Alt(km)}
Center cylindric: 0.00000000,0.00000000,0.0000000 {E-lon(deg),Dxy(km),Dz(km)}
Center radii    : 696000.0 x 696000.0 x 696000.0 k{Equator, meridian, pole}    
Small perturbers: Yes                             {source: SB441-N16}
Output units    : AU-D
Output type     : GEOMETRIC cartesian states
Output format   : 2 (position and velocity)
Reference frame : ICRF
*******************************************************************************
Initial IAU76/J2000 heliocentric ecliptic osculating elements (au, days, deg.):
  EPOCH=  2458849.5 ! 2020-Jan-01.00 (TDB)         Residual RMS= .47385        
   EC= .08857261385730482  QR= 2.15270823108896    TP= 2458247.8038331456      
   OM= 103.8092892453337   W=  150.8357762126256   IN= 7.14181494423702        
  Equivalent ICRF heliocentric cartesian coordinates (au, au/d):
   X= 1.243605461680222E+00  Y= 2.133870405923554E+00  Z= 6.874866847781977E-01
  VX=-8.779290950353064E-03 VY= 4.462599423343603E-03 VZ= 2.927653651039283E-03
Asteroid physical parameters (km, seconds, rotational period in hours):        
   GM= 17.28824            RAD= 262.7              ROTPER= 5.342128            
   H= 3.4                  G= .320                 B-V= .782                   
                           ALBEDO= .4228           STYP= V                     
*******************************************************************************
JDTDB
   X     Y     Z
   VX    VY    VZ
*******************************************************************************
$$SOE
2459449.500000000 = A.D. 2021-Aug-23 00:00:00.0000 TDB 
 X =-1.789040764811468E+00 Y =-1.244412671213539E+00 Z =-2.616642589583450E-01
 VX= 7.319207002742416E-03 VY=-8.481618206326785E-03 VZ=-4.338067987596540E-03
2459459.500000000 = A.D. 2021-Sep-02 00:00:00.0000 TDB 
 X =-1.713373270560182E+00 Y =-1.327443069186301E+00 Z =-3.046574236929320E-01
 VX= 7.811441679432374E-03 VY=-8.120061868216993E-03 VZ=-4.258438682337356E-03
2459469.500000000 = A.D. 2021-Sep-12 00:00:00.0000 TDB 
 X =-1.632872226908387E+00 Y =-1.406727323531503E+00 Z =-3.467906361395728E-01
 VX= 8.285588614339687E-03 VY=-7.732535056207872E-03 VZ=-4.166092570687161E-03
2459479.500000000 = A.D. 2021-Sep-22 00:00:00.0000 TDB 
 X =-1.547728303088997E+00 Y =-1.482010348914893E+00 Z =-3.879372872515232E-01
 VX= 8.739695609149122E-03 VY=-7.319986862578532E-03 VZ=-4.061152306988978E-03
2459489.500000000 = A.D. 2021-Oct-02 00:00:00.0000 TDB 
 X =-1.458151478023469E+00 Y =-1.553047306312169E+00 Z =-4.279723233496134E-01
 VX= 9.171855684989988E-03 VY=-6.883517311351181E-03 VZ=-3.943806624622513E-03
2459499.500000000 = A.D. 2021-Oct-12 00:00:00.0000 TDB 
 X =-1.364370503343150E+00 Y =-1.619605105436993E+00 Z =-4.667729156412642E-01
 VX= 9.580224306604736E-03 VY=-6.424375699885366E-03 VZ=-3.814312004024519E-03
2459509.500000000 = A.D. 2021-Oct-22 00:00:00.0000 TDB 
 X =-1.266632183219897E+00 Y =-1.681463876868685E+00 Z =-5.042191415596228E-01
 VX= 9.963038816527953E-03 VY=-5.943955404089836E-03 VZ=-3.672992946860213E-03
2459519.500000000 = A.D. 2021-Nov-01 00:00:00.0000 TDB 
 X =-1.165200474967494E+00 Y =-1.738418357126413E+00 Z =-5.401946498446554E-01
 VX= 1.031863227902961E-02 VY=-5.443782613661104E-03 VZ=-3.520238691468829E-03
2459529.500000000 = A.D. 2021-Nov-11 00:00:00.0000 TDB 
 X =-1.060355495419734E+00 Y =-1.790279196909138E+00 Z =-5.745873086090072E-01
 VX= 1.064544277157643E-02 VY=-4.925514297468963E-03 VZ=-3.356504640678379E-03
2459539.500000000 = A.D. 2021-Nov-21 00:00:00.0000 TDB 
 X =-9.523923582098469E-01 Y =-1.836874248164285E+00 Z =-6.072898763104305E-01
 VX= 1.094203643033084E-02 VY=-4.390931078305379E-03 VZ=-3.182312726032597E-03
2459549.500000000 = A.D. 2021-Dec-01 00:00:00.0000 TDB 
 X =-8.416198093189815E-01 Y =-1.878049719049188E+00 Z =-6.382006419349826E-01
 VX= 1.120712247283824E-02 VY=-3.841921168263094E-03 VZ=-2.998246372522933E-03
2459559.500000000 = A.D. 2021-Dec-11 00:00:00.0000 TDB 
 X =-7.283587416151964E-01 Y =-1.913671180822102E+00 Z =-6.672240194641020E-01
 VX= 1.143956415436707E-02 VY=-3.280466703209953E-03 VZ=-2.804946508569584E-03
2459569.500000000 = A.D. 2021-Dec-21 00:00:00.0000 TDB 
 X =-6.129406001695639E-01 Y =-1.943624436493184E+00 Z =-6.942711023576738E-01
 VX= 1.163838945966681E-02 VY=-2.708629388641635E-03 VZ=-2.603107333639266E-03
2459579.500000000 = A.D. 2021-Dec-31 00:00:00.0000 TDB 
 X =-4.957056873841243E-01 Y =-1.967816239594508E+00 Z =-7.192601722033209E-01
 VX= 1.180280033942741E-02 VY=-2.128534974552643E-03 VZ=-2.393471416021459E-03
2459589.500000000 = A.D. 2022-Jan-10 00:00:00.0000 TDB 
 X =-3.770013826677570E-01 Y =-1.986174854275160E+00 Z =-7.421171561360751E-01
 VX= 1.193218079477383E-02 VY=-1.542357040875634E-03 VZ=-2.176824363605701E-03
2459599.500000000 = A.D. 2022-Jan-20 00:00:00.0000 TDB 
 X =-2.571802812826131E-01 Y =-1.998650441556450E+00 Z =-7.627760248530573E-01
 VX= 1.202610460084398E-02 VY=-9.522975322891583E-04 VZ=-1.953987741217005E-03
2459609.500000000 = A.D. 2022-Jan-30 00:00:00.0000 TDB 
 X =-1.365982962768557E-01 Y =-2.005215227394069E+00 Z =-7.811791029796782E-01
 VX= 1.208433274763698E-02 VY=-3.605647661793584E-04 VZ=-1.725809552281221E-03
2459619.500000000 = A.D. 2022-Feb-09 00:00:00.0000 TDB 
 X =-1.561281743197603E-02 Y =-2.005863511341325E+00 Z =-7.972773130537697E-01
 VX= 1.210680997063986E-02 VY= 2.306363811435431E-04 VZ=-1.493161069635419E-03
2459629.500000000 = A.D. 2022-Feb-19 00:00:00.0000 TDB 
 X = 1.054191611125881E-01 Y =-2.000611556262410E+00 Z =-8.110303830310959E-01
 VX= 1.209367074859002E-02 VY= 8.191219791287263E-04 VZ=-1.256930429172416E-03
2459639.500000000 = A.D. 2022-Mar-01 00:00:00.0000 TDB 
 X = 2.261429210450756E-01 Y =-1.989497271677969E+00 Z =-8.224069668730328E-01
 VX= 1.204523448833582E-02 VY= 1.402749515069734E-03 VZ=-1.018013369077155E-03
2459649.500000000 = A.D. 2022-Mar-11 00:00:00.0000 TDB 
 X = 3.462078306491043E-01 Y =-1.972579718177745E+00 Z =-8.313846832288169E-01
 VX= 1.196199778831761E-02 VY= 1.979433783122926E-03 VZ=-7.773059359199308E-04
2459659.500000000 = A.D. 2022-Mar-21 00:00:00.0000 TDB 
 X = 4.652690753170481E-01 Y =-1.949938461201776E+00 Z =-8.379500842905654E-01
 VX= 1.184462593676644E-02 VY= 2.547161330561830E-03 VZ=-5.356976783824020E-04
2459669.500000000 = A.D. 2022-Mar-31 00:00:00.0000 TDB 
 X = 5.829892961042548E-01 Y =-1.921672786794522E+00 Z =-8.420985581929362E-01
 VX= 1.169394304790420E-02 VY= 3.104003515980270E-03 VZ=-2.940652149929454E-04
2459679.500000000 = A.D. 2022-Apr-10 00:00:00.0000 TDB 
 X = 6.990401267970284E-01 Y =-1.887900795360373E+00 Z =-8.438341701409131E-01
 VX= 1.151092199497709E-02 VY= 3.648127985590244E-03 VZ=-5.326637412513339E-05
2459689.500000000 = A.D. 2022-Apr-20 00:00:00.0000 TDB 
 X = 8.131036336664761E-01 Y =-1.848758375261752E+00 Z =-8.431694410781767E-01
 VX= 1.129667411451893E-02 VY= 4.177812168037876E-03 VZ= 1.858670337836814E-04
2459699.500000000 = A.D. 2022-Apr-30 00:00:00.0000 TDB 
 X = 9.248736043343854E-01 Y =-1.804398038912411E+00 Z =-8.401250464256258E-01
 VX= 1.105242822047774E-02 VY= 4.691454113402647E-03 VZ= 4.225363952376817E-04
2459709.500000000 = A.D. 2022-May-10 00:00:00.0000 TDB 
 X = 1.034056633418878E+00 Y =-1.754987724901001E+00 Z =-8.347294822120886E-01
 VX= 1.077951614513560E-02 VY= 5.187570738860051E-03 VZ= 6.559763193735253E-04
2459719.500000000 = A.D. 2022-May-20 00:00:00.0000 TDB 
 X = 1.140373121001892E+00 Y =-1.700709579182442E+00 Z =-8.270187151236935E-01
 VX= 1.047936480873893E-02 VY= 5.664805274356054E-03 VZ= 8.854591450242173E-04
2459729.500000000 = A.D. 2022-May-30 00:00:00.0000 TDB 
 X = 1.243558143626937E+00 Y =-1.641758656150020E+00 Z =-8.170357782704903E-01
 VX= 1.015347977352439E-02 VY= 6.121933249461377E-03 VZ= 1.110299789232371E-03
2459739.500000000 = A.D. 2022-Jun-09 00:00:00.0000 TDB 
 X = 1.343362160185521E+00 Y =-1.578341586964072E+00 Z =-8.048303317275939E-01
 VX= 9.803429462645463E-03 VY= 6.557863842451481E-03 VZ= 1.329858279881847E-03
